0 FENGYUN 1C DEB
1 31608U 99025BZN 13283.06581464  .00001419  00000-0  26750-3 0  4290
2 31608 098.4219 236.4427 0254977 116.1551 246.6325 14.47306709338277
0 FENGYUN 1C DEB
1 31608U 99025BZN 13284.10283472  .00001504  00000-0  28369-3 0  4309
2 31608 098.4254 237.4863 0254088 113.1197 249.7410 14.47311739338422
0 FENGYUN 1C DEB
1 31608U 99025BZN 13287.07560365  .00001677  00000-0  31021-3 0  4318
2 31608 098.4340 240.4662 0258999 104.4265 258.6604 14.47324860338853
0 FENGYUN 1C DEB
1 31608U 99025BZN 13289.08046072  .00001912  00000-0  35628-3 0  4325
2 31608 098.4284 242.4524 0255276 098.0745 265.0525 14.47337596339142
0 FENGYUN 1C DEB
1 31608U 99025BZN 13290.67047918  .00004084  00000-0  74251-3 0  4342
2 31608 098.4283 244.0375 0253849 093.0871 269.9880 14.47361626339375
0 FENGYUN 1C DEB
1 31608U 99025BZN 13290.67049358  .00002006  00000-0  36359-3 0  4330
2 31608 098.4458 244.0849 0263343 093.8834 269.2598 14.47344832339371
0 FENGYUN 1C DEB
1 31608U 99025BZN 13293.64316743  .00002426  00000-0  44054-3 0  4343
2 31608 098.4429 247.0426 0261167 085.6224 277.7163 14.47367861339804
0 FENGYUN 1C DEB
1 31608U 99025BZN 13295.64791161  .00003118  00000-0  58154-3 0  4352
2 31608 098.4250 248.9857 0251019 078.0085 285.1707 14.47393465340099
